[
    {
        "Altitude(m)": 611967.177101861,
        "Argument of Periapsis(deg)": 0.0,
        "Eccentricity": 0.0,
        "Inclination(deg)": 60.0,
        "Latitude(deg)": 59.14015602813725,
        "Longitude(deg)": 6.091892983224087,
        "Mean Anomaly(deg)": 98.18179999999998,
        "RAAN(deg)": 0.0,
        "Satellite Name": "Test1 6",
        "Satellite Number": 6,
        "Semi-Major Axis(m)": 6980739.136638005,
        "Time(s)": 0
    },
    {
        "Altitude(m)": 611934.3776001836,
        "Argument of Periapsis(deg)": 0.00010418945913296404,
        "Eccentricity": 0.0,
        "Inclination(deg)": 60.0,
        "Latitude(deg)": 58.98652014915622,
        "Longitude(deg)": 7.215139564568768,
        "Mean Anomaly(deg)": 98.80190614546183,
        "RAAN(deg)": -0.0004200491397426661,
        "Satellite Name": "Test1 6",
        "Satellite Number": 6,
        "Semi-Major Axis(m)": 6980739.136638005,
        "Time(s)": 10
    }
]